IRIDIUM 36              
1 24967U 97056C   24336.72802644  .00001434  00000+0  47501-3 0  9997
2 24967  86.3968 255.8979 0002111  78.6741 281.4693 14.37265032423851
IRIDIUM 39              
1 25042U 97069D   24336.62215263  .00002312  00000+0  60821-3 0  9996
2 25042  86.3891 295.8431 0015755 243.6994 116.2591 14.48672391420356
IRIDIUM 38              
1 25043U 97069E   24336.95899435  .00001561  00000+0  51277-3 0  9992
2 25043  86.3935 316.1580 0003592  59.6256 300.5297 14.37747356417618
IRIDIUM 42              
1 25077U 97077A   24337.00345955  .00001410  00000+0  47874-3 0  9999
2 25077  86.3942 322.0672 0002834  77.5053 282.6461 14.36011663412895
IRIDIUM 44              
1 25078U 97077B   24336.86322970  .00001544  00000+0  48559-3 0  9994
2 25078  86.3929 304.5672 0001827  34.7415 325.3903 14.39878472415301
IRIDIUM 45              
1 25104U 97082A   24336.89736918  .00023380  00000+0  10660-2 0  9997
2 25104  86.3615 142.9546 0138924 346.4468  13.3052 15.12198093422120
IRIDIUM 24              
1 25105U 97082B   24336.88000952  .00001377  00000+0  41623-3 0  9995
2 25105  86.3925 163.9315 0012052  19.6146 340.5515 14.41701955414787
IRIDIUM 51              
1 25262U 98018A   24336.77882708  .00041454  00000+0  14502-2 0  9999
2 25262  86.3901 152.2797 0117056 280.6491  78.1588 15.22971667416812
